OBJECT_NAME,OBJECT_ID,EPOCH,MEAN_MOTION,ECCENTRICITY,INCLINATION,RA_OF_ASC_NODE,ARG_OF_PERICENTER,MEAN_ANOMALY,EPHEMERIS_TYPE,CLASSIFICATION_TYPE,NORAD_CAT_ID,ELEMENT_SET_NO,REV_AT_EPOCH,BSTAR,MEAN_MOTION_DOT,MEAN_MOTION_DDOT
STARLINK-32574,2024-209R,2025-05-08T22:33:05.785920,15.30188379,.0001229,53.1599,118.2647,96.4667,263.6474,0,U,61954,999,2825,-.32155E-5,-.454E-5,0
STARLINK-32583,2024-209S,2025-05-08T06:28:14.667744,15.30193430,.0001184,53.1592,121.1915,81.3246,278.7889,0,U,61955,999,2815,.1569E-4,.106E-5,0
STARLINK-32273,2024-209T,2025-05-08T05:50:15.396864,15.30188118,.0001418,53.1599,121.0278,78.9161,281.1999,0,U,61956,999,2813,.19012E-4,.204E-5,0
STARLINK-32359,2024-209U,2025-05-08T09:27:14.376096,15.30185091,.0001227,53.1594,120.5470,78.7832,281.3307,0,U,61957,999,2817,.13421E-4,.38E-6,0
STARLINK-32566,2024-209V,2025-05-08T23:00:16.865856,15.30190053,.0001312,53.1602,117.6740,91.0988,269.0163,0,U,61958,999,2826,.25881E-4,.407E-5,0
STARLINK-32499,2024-210A,2025-05-08T23:34:44.104224,15.27576691,.0001307,43.0022,100.2425,233.8159,126.2572,0,U,61959,999,2828,.59591E-5,-.98E-6,0
STARLINK-32372,2024-210B,2025-05-08T06:30:06.758784,15.27580702,.0001234,43.0008,104.3608,263.4824,96.5887,0,U,61960,999,2807,.65326E-4,.1536E-4,0
STARLINK-32452,2024-210C,2025-05-08T22:26:01.706208,15.27575378,.0000977,42.9982,93.8271,282.6394,77.4349,0,U,61961,999,2838,.2404E-4,.4E-5,0
STARLINK-32458,2024-210D,2025-05-08T07:33:05.575104,15.40693198,.0001435,43.0040,95.1837,268.1665,91.9027,0,U,61962,999,2831,.32261E-4,.1044E-4,0
STARLINK-32487,2024-210E,2025-05-08T22:54:14.199264,15.27580606,.000081,43.0016,100.8903,277.8122,82.2637,0,U,61963,999,2830,.47211E-4,.1037E-4,0
STARLINK-32513,2024-210F,2025-05-08T07:26:38.820192,15.40702417,.0001131,43.0028,95.1497,261.3622,98.7107,0,U,61964,999,2831,-.45554E-4,-.2206E-4,0
STARLINK-32514,2024-210G,2025-05-08T14:40:47.862048,15.27576692,.0000439,43.0003,95.7051,287.0899,72.9905,0,U,61965,999,2833,.30272E-5,-.178E-5,0
STARLINK-32498,2024-210H,2025-05-08T23:03:26.186400,15.40681799,.0002015,43.0032,91.4303,257.7737,102.2894,0,U,61966,999,2839,-.30577E-5,-.431E-5,0
STARLINK-32518,2024-210J,2025-05-09T05:25:09.831072,15.27575626,.0001079,43.0037,92.3781,278.5866,81.4863,0,U,61967,999,2822,.12474E-4,.81E-6,0
STARLINK-32471,2024-210K,2025-05-08T14:25:59.936160,15.27584164,.0000617,42.9962,95.6333,313.4326,46.6475,0,U,61968,999,2834,-.56998E-4,-.183E-4,0
STARLINK-32450,2024-210L,2025-05-08T22:22:19.481952,15.27573613,.0000774,42.9993,93.8123,272.4748,87.6015,0,U,61969,999,2819,.33649E-4,.664E-5,0
STARLINK-32613,2024-210M,2025-05-07T23:47:46.819104,15.27630152,.0001616,43.0036,106.5715,293.9189,66.1493,0,U,61970,999,2816,-.49284E-3,-.1382E-3,0
STARLINK-32610,2024-210N,2025-05-08T23:09:02.347200,15.27577001,.000077,43.0017,100.9704,264.0246,96.0518,0,U,61971,999,2831,.12584E-4,.84E-6,0
STARLINK-32612,2024-210P,2025-05-08T09:07:11.601696,15.27566105,.0001297,43.0022,104.3287,258.6858,101.3848,0,U,61972,999,2818,.11854E-3,.3E-4,0
STARLINK-32601,2024-210Q,2025-05-08T09:32:52.444608,15.27577875,.0001026,43.0023,103.5917,237.7688,122.3064,0,U,61973,999,2819,.15676E-4,.169E-5,0
STARLINK-32593,2024-210R,2025-05-07T23:57:04.953600,15.27563300,.0002453,43.0063,106.6189,297.0328,63.0273,0,U,61974,999,2812,.20698E-4,.307E-5,0
STARLINK-32586,2024-210S,2025-05-08T22:48:41.096160,15.27573919,.0000594,43.0022,100.8629,262.4535,97.6249,0,U,61975,999,2827,.10893E-4,.38E-6,0
STARLINK-32611,2024-210T,2025-05-08T05:27:24.888096,15.27576702,.0000799,43.0010,104.8923,273.8975,86.1785,0,U,61976,999,2816,-.15704E-5,-.305E-5,0
STARLINK-32607,2024-210U,2025-05-08T23:03:29.371104,15.27575336,.000065,43.0022,100.9385,273.5987,86.4790,0,U,61977,999,2831,-.50948E-5,-.402E-5,0
STARLINK-32606,2024-210V,2025-05-07T23:25:36.171840,15.27562520,.0003677,42.9997,106.4509,241.5486,118.4995,0,U,61978,999,2812,-.24347E-4,-.933E-5,0
STARLINK-32578,2024-210W,2025-05-08T22:22:49.708992,15.27556731,.0001011,42.9993,100.7255,253.2863,106.7878,0,U,61979,999,2831,-.13E-3,-.3835E-4,0
STARLINK-32517,2024-210X,2025-05-08T07:44:07.045728,15.27597446,.0001597,42.9997,104.7495,254.0082,106.0593,0,U,61980,999,2812,-.71832E-4,-.2239E-4,0
STARLINK-32522,2024-210Y,2025-05-08T10:04:19.834464,15.27575534,.0000699,42.9988,103.7562,275.8651,84.2121,0,U,61981,999,2819,.42426E-4,.906E-5,0
STARLINK-32560,2024-210Z,2025-05-08T09:43:58.005408,15.27581237,.0001358,43.0008,103.6490,263.2719,96.7978,0,U,61982,999,2819,.35818E-4,.724E-5,0
TIANZHOU-8,2024-211A,2025-05-08T15:09:44.089920,15.61493421,.0006261,41.4649,261.1438,234.4629,125.5627,0,U,61983,999,2466,.37875E-3,.33192E-3,0
