STARLINK-32574          
1 61954U 24209R   25128.93965030 -.00000454  00000+0 -32155-5 0  9990
2 61954  53.1599 118.2647 0001229  96.4667 263.6474 15.30188379 28254
STARLINK-32583          
1 61955U 24209S   25128.26961421  .00000106  00000+0  15690-4 0  9993
2 61955  53.1592 121.1915 0001184  81.3246 278.7889 15.30193430 28155
STARLINK-32273          
1 61956U 24209T   25128.24323376  .00000204  00000+0  19012-4 0  9994
2 61956  53.1599 121.0278 0001418  78.9161 281.1999 15.30188118 28137
STARLINK-32359          
1 61957U 24209U   25128.39391639  .00000038  00000+0  13421-4 0  9991
2 61957  53.1594 120.5470 0001227  78.7832 281.3307 15.30185091 28178
STARLINK-32566          
1 61958U 24209V   25128.95852854  .00000407  00000+0  25881-4 0  9998
2 61958  53.1602 117.6740 0001312  91.0988 269.0163 15.30190053 28268
STARLINK-32499          
1 61959U 24210A   25128.98245491 -.00000098  00000+0  59591-5 0  9990
2 61959  43.0022 100.2425 0001307 233.8159 126.2572 15.27576691 28283
STARLINK-32372          
1 61960U 24210B   25128.27091156  .00001536  00000+0  65326-4 0  9990
2 61960  43.0008 104.3608 0001234 263.4824  96.5887 15.27580702 28077
STARLINK-32452          
1 61961U 24210C   25128.93474197  .00000400  00000+0  24040-4 0  9991
2 61961  42.9982  93.8271 0000977 282.6394  77.4349 15.27575378 28381
STARLINK-32458          
1 61962U 24210D   25128.31464786  .00001044  00000+0  32261-4 0  9996
2 61962  43.0040  95.1837 0001435 268.1665  91.9027 15.40693198 28315
STARLINK-32487          
1 61963U 24210E   25128.95433101  .00001037  00000+0  47211-4 0  9997
2 61963  43.0016 100.8903 0000810 277.8122  82.2637 15.27580606 28301
STARLINK-32513          
1 61964U 24210F   25128.31017153 -.00002206  00000+0 -45554-4 0  9992
2 61964  43.0028  95.1497 0001131 261.3622  98.7107 15.40702417 28315
STARLINK-32514          
1 61965U 24210G   25128.61166507 -.00000178  00000+0  30272-5 0  9991
2 61965  43.0003  95.7051 0000439 287.0899  72.9905 15.27576692 28333
STARLINK-32498          
1 61966U 24210H   25128.96071975 -.00000431  00000+0 -30577-5 0  9995
2 61966  43.0032  91.4303 0002015 257.7737 102.2894 15.40681799 28396
STARLINK-32518          
1 61967U 24210J   25129.22580823  .00000081  00000+0  12474-4 0  9997
2 61967  43.0037  92.3781 0001079 278.5866  81.4863 15.27575626 28227
STARLINK-32471          
1 61968U 24210K   25128.60138815 -.00001830  00000+0 -56998-4 0  9993
2 61968  42.9962  95.6333 0000617 313.4326  46.6475 15.27584164 28341
STARLINK-32450          
1 61969U 24210L   25128.93216993  .00000664  00000+0  33649-4 0  9994
2 61969  42.9993  93.8123 0000774 272.4748  87.6015 15.27573613 28194
STARLINK-32613          
1 61970U 24210M   25127.99151411 -.00013820  00000+0 -49284-3 0  9995
2 61970  43.0036 106.5715 0001616 293.9189  66.1493 15.27630152 28169
STARLINK-32610          
1 61971U 24210N   25128.96461050  .00000084  00000+0  12584-4 0  9997
2 61971  43.0017 100.9704 0000770 264.0246  96.0518 15.27577001 28318
STARLINK-32612          
1 61972U 24210P   25128.37999539  .00003000  00000+0  11854-3 0  9990
2 61972  43.0022 104.3287 0001297 258.6858 101.3848 15.27566105 28186
STARLINK-32601          
1 61973U 24210Q   25128.39782922  .00000169  00000+0  15676-4 0  9999
2 61973  43.0023 103.5917 0001026 237.7688 122.3064 15.27577875 28198
STARLINK-32593          
1 61974U 24210R   25127.99797400  .00000307  00000+0  20698-4 0  9996
2 61974  43.0063 106.6189 0002453 297.0328  63.0273 15.27563300 28127
STARLINK-32586          
1 61975U 24210S   25128.95047565  .00000038  00000+0  10893-4 0  9991
2 61975  43.0022 100.8629 0000594 262.4535  97.6249 15.27573919 28277
STARLINK-32611          
1 61976U 24210T   25128.22737139 -.00000305  00000+0 -15704-5 0  9991
2 61976  43.0010 104.8923 0000799 273.8975  86.1785 15.27576702 28166
STARLINK-32607          
1 61977U 24210U   25128.96075661 -.00000402  00000+0 -50948-5 0  9995
2 61977  43.0022 100.9385 0000650 273.5987  86.4790 15.27575336 28313
STARLINK-32606          
1 61978U 24210V   25127.97611310 -.00000933  00000+0 -24347-4 0  9995
2 61978  42.9997 106.4509 0003677 241.5486 118.4995 15.27562520 28126
STARLINK-32578          
1 61979U 24210W   25128.93251978 -.00003835  00000+0 -13000-3 0  9990
2 61979  42.9993 100.7255 0001011 253.2863 106.7878 15.27556731 28315
STARLINK-32517          
1 61980U 24210X   25128.32230377 -.00002239  00000+0 -71832-4 0  9990
2 61980  42.9997 104.7495 0001597 254.0082 106.0593 15.27597446 28126
STARLINK-32522          
1 61981U 24210Y   25128.41967401  .00000906  00000+0  42426-4 0  9990
2 61981  42.9988 103.7562 0000699 275.8651  84.2121 15.27575534 28191
STARLINK-32560          
1 61982U 24210Z   25128.40553247  .00000724  00000+0  35818-4 0  9994
2 61982  43.0008 103.6490 0001358 263.2719  96.7978 15.27581237 28190
TIANZHOU-8              
1 61983U 24211A   25128.63176030  .00033192  00000+0  37875-3 0  9991
2 61983  41.4649 261.1438 0006261 234.4629 125.5627 15.61493421 24669
